{
  "type": "FeatureCollection",
  "features": [
    {
      "type": "Feature",
      "properties": {
        "name": "Syrdarya Alfalfa Field - Boundary",
        "fill": "#00F0FF",
        "fill-opacity": 0.2,
        "stroke": "#00F0FF",
        "stroke-width": 2
      },
      "geometry": {
        "type": "Polygon",
        "coordinates": [
          [
            [68.660000, 40.840000],
            [68.662000, 40.840000],
            [68.662000, 40.842000],
            [68.660000, 40.842000],
            [68.660000, 40.840000]
          ]
        ]
      }
    },
    {
      "type": "Feature",
      "properties": {
        "name": "Nomad 30L Spray Path (6m Swath)",
        "stroke": "#FF0055",
        "stroke-width": 3
      },
      "geometry": {
        "type": "LineString",
        "coordinates": [
          [68.660100, 40.840100],
          [68.660100, 40.841900],
          [68.660400, 40.841900],
          [68.660400, 40.840100],
          [68.660700, 40.840100],
          [68.660700, 40.841900],
          [68.661000, 40.841900],
          [68.661000, 40.840100],
          [68.661300, 40.840100],
          [68.661300, 40.841900]
        ]
      }
    }
  ]
}
